{
  "type": "FeatureCollection",
  "features": [
    {
      "type": "Feature",
      "properties": {
        "norad_id": 34022,
        "name": "COSMOS 2251 DEB",
        "group": "cosmos-2251-debris",
        "lat": -45.632024210122815,
        "lon": 92.12907829290077,
        "alt_km": 768.451297312622,
        "timestamp": "2025-12-21T05:44:51.980862+00:00",
        "meta_object_name": "COSMOS 2251 DEB",
        "meta_object_id": "1993-036HH",
        "meta_epoch": "2025-12-20T18:56:22.739712",
        "meta_mean_motion": 14.38974178,
        "meta_eccentricity": 0.00229746,
        "meta_inclination": 74.054,
        "meta_ra_of_asc_node": 255.9635,
        "meta_arg_of_pericenter": 319.6186,
        "meta_mean_anomaly": 96.6431,
        "meta_ephemeris_type": 0,
        "meta_classification_type": "U",
        "meta_norad_cat_id": 34022,
        "meta_element_set_no": 999,
        "meta_rev_at_epoch": 88311,
        "meta_bstar": 0.00014988095,
        "meta_mean_motion_dot": 4.37e-06,
        "meta_mean_motion_ddot": 0,
        "tle_line1": "1 34022U 93036HH  25354.78915208  .00000437  00000+0  14988-3 0  9997",
        "tle_line2": "2 34022  74.0540 255.9635 0022974 319.6186  96.6431 14.38974178883118"
      },
      "geometry": {
        "type": "Point",
        "coordinates": [
          92.12907829290077,
          -45.632024210122815
        ]
      }
    },
    {
      "type": "Feature",
      "properties": {
        "norad_id": 34023,
        "name": "COSMOS 2251 DEB",
        "group": "cosmos-2251-debris",
        "lat": -15.885231787264734,
        "lon": 60.689982805800014,
        "alt_km": 770.3109734690061,
        "timestamp": "2025-12-21T05:44:51.980872+00:00",
        "meta_object_name": "COSMOS 2251 DEB",
        "meta_object_id": "1993-036HJ",
        "meta_epoch": "2025-12-20T17:25:50.522880",
        "meta_mean_motion": 14.40575901,
        "meta_eccentricity": 0.00187686,
        "meta_inclination": 74.0244,
        "meta_ra_of_asc_node": 236.9633,
        "meta_arg_of_pericenter": 331.4628,
        "meta_mean_anomaly": 84.6424,
        "meta_ephemeris_type": 0,
        "meta_classification_type": "U",
        "meta_norad_cat_id": 34023,
        "meta_element_set_no": 999,
        "meta_rev_at_epoch": 88329,
        "meta_bstar": 0.00019709176,
        "meta_mean_motion_dot": 6.03e-06,
        "meta_mean_motion_ddot": 0,
        "tle_line1": "1 34023U 93036HJ  25354.72627920  .00000603  00000+0  19709-3 0  9994",
        "tle_line2": "2 34023  74.0244 236.9633 0018768 331.4628  84.6424 14.40575901883298"
      },
      "geometry": {
        "type": "Point",
        "coordinates": [
          60.689982805800014,
          -15.885231787264734
        ]
      }
    },
    {
      "type": "Feature",
      "properties": {
        "norad_id": 34024,
        "name": "COSMOS 2251 DEB",
        "group": "cosmos-2251-debris",
        "lat": 45.72144157692702,
        "lon": -42.52732729971154,
        "alt_km": 761.4647416185671,
        "timestamp": "2025-12-21T05:44:51.980881+00:00",
        "meta_object_name": "COSMOS 2251 DEB",
        "meta_object_id": "1993-036HK",
        "meta_epoch": "2025-12-20T21:27:44.030304",
        "meta_mean_motion": 14.35404289,
        "meta_eccentricity": 0.0021414,
        "meta_inclination": 74.0467,
        "meta_ra_of_asc_node": 301.0469,
        "meta_arg_of_pericenter": 350.024,
        "meta_mean_anomaly": 74.7201,
        "meta_ephemeris_type": 0,
        "meta_classification_type": "U",
        "meta_norad_cat_id": 34024,
        "meta_element_set_no": 999,
        "meta_rev_at_epoch": 88141,
        "meta_bstar": 0.00012570596,
        "meta_mean_motion_dot": 3.36e-06,
        "meta_mean_motion_ddot": 0,
        "tle_line1": "1 34024U 93036HK  25354.89425961  .00000336  00000+0  12571-3 0  9997",
        "tle_line2": "2 34024  74.0467 301.0469 0021414 350.0240  74.7201 14.35404289881415"
      },
      "geometry": {
        "type": "Point",
        "coordinates": [
          -42.52732729971154,
          45.72144157692702
        ]
      }
    },
    {
      "type": "Feature",
      "properties": {
        "norad_id": 34026,
        "name": "COSMOS 2251 DEB",
        "group": "cosmos-2251-debris",
        "lat": -42.30216126423198,
        "lon": -52.22214889471962,
        "alt_km": 1159.8234754667747,
        "timestamp": "2025-12-21T05:44:51.980891+00:00",
        "meta_object_name": "COSMOS 2251 DEB",
        "meta_object_id": "1993-036HM",
        "meta_epoch": "2025-12-20T14:46:03.253152",
        "meta_mean_motion": 13.65318179,
        "meta_eccentricity": 0.0349902,
        "meta_inclination": 73.7669,
        "meta_ra_of_asc_node": 324.1888,
        "meta_arg_of_pericenter": 193.0056,
        "meta_mean_anomaly": 292.4067,
        "meta_ephemeris_type": 0,
        "meta_classification_type": "U",
        "meta_norad_cat_id": 34026,
        "meta_element_set_no": 999,
        "meta_rev_at_epoch": 83639,
        "meta_bstar": 0.00032792,
        "meta_mean_motion_dot": 3.82e-06,
        "meta_mean_motion_ddot": 0,
        "tle_line1": "1 34026U 93036HM  25354.61531543  .00000382  00000+0  32792-3 0  9991",
        "tle_line2": "2 34026  73.7669 324.1888 0349902 193.0056 292.4067 13.65318179836393"
      },
      "geometry": {
        "type": "Point",
        "coordinates": [
          -52.22214889471962,
          -42.30216126423198
        ]
      }
    },
    {
      "type": "Feature",
      "properties": {
        "norad_id": 34028,
        "name": "COSMOS 2251 DEB",
        "group": "cosmos-2251-debris",
        "lat": 34.17937535089425,
        "lon": -14.458270058903729,
        "alt_km": 1050.9508048167108,
        "timestamp": "2025-12-21T05:44:51.980902+00:00",
        "meta_object_name": "COSMOS 2251 DEB",
        "meta_object_id": "1993-036HP",
        "meta_epoch": "2025-12-20T15:35:55.253184",
        "meta_mean_motion": 13.20628876,
        "meta_eccentricity": 0.0543534,
        "meta_inclination": 73.8835,
        "meta_ra_of_asc_node": 335.1228,
        "meta_arg_of_pericenter": 111.6096,
        "meta_mean_anomaly": 8.353,
        "meta_ephemeris_type": 0,
        "meta_classification_type": "U",
        "meta_norad_cat_id": 34028,
        "meta_element_set_no": 999,
        "meta_rev_at_epoch": 81112,
        "meta_bstar": 0.00045906,
        "meta_mean_motion_dot": 3.89e-06,
        "meta_mean_motion_ddot": 0,
        "tle_line1": "1 34028U 93036HP  25354.64994506  .00000389  00000+0  45906-3 0  9996",
        "tle_line2": "2 34028  73.8835 335.1228 0543534 111.6096   8.3530 13.20628876811120"
      },
      "geometry": {
        "type": "Point",
        "coordinates": [
          -14.458270058903729,
          34.17937535089425
        ]
      }
    },
    {
      "type": "Feature",
      "properties": {
        "norad_id": 34031,
        "name": "COSMOS 2251 DEB",
        "group": "cosmos-2251-debris",
        "lat": -70.6499034344497,
        "lon": -5.804332979045875,
        "alt_km": 685.5554449431111,
        "timestamp": "2025-12-21T05:44:51.980912+00:00",
        "meta_object_name": "COSMOS 2251 DEB",
        "meta_object_id": "1993-036HS",
        "meta_epoch": "2025-12-20T19:23:09.286368",
        "meta_mean_motion": 14.59770035,
        "meta_eccentricity": 0.00229339,
        "meta_inclination": 74.0131,
        "meta_ra_of_asc_node": 120.2978,
        "meta_arg_of_pericenter": 240.2548,
        "meta_mean_anomaly": 270.639,
        "meta_ephemeris_type": 0,
        "meta_classification_type": "U",
        "meta_norad_cat_id": 34031,
        "meta_element_set_no": 999,
        "meta_rev_at_epoch": 88683,
        "meta_bstar": 0.00079740803,
        "meta_mean_motion_dot": 3.793e-05,
        "meta_mean_motion_ddot": 0,
        "tle_line1": "1 34031U 93036HS  25354.80774637  .00003793  00000+0  79741-3 0  9995",
        "tle_line2": "2 34031  74.0131 120.2978 0022933 240.2548 270.6390 14.59770035886833"
      },
      "geometry": {
        "type": "Point",
        "coordinates": [
          -5.804332979045875,
          -70.6499034344497
        ]
      }
    },
    {
      "type": "Feature",
      "properties": {
        "norad_id": 34035,
        "name": "COSMOS 2251 DEB",
        "group": "cosmos-2251-debris",
        "lat": -4.86765772898895,
        "lon": 154.54791908058792,
        "alt_km": 749.3905345499488,
        "timestamp": "2025-12-21T05:44:51.980922+00:00",
        "meta_object_name": "COSMOS 2251 DEB",
        "meta_object_id": "1993-036HW",
        "meta_epoch": "2025-12-20T16:27:56.877408",
        "meta_mean_motion": 14.52033624,
        "meta_eccentricity": 0.00451767,
        "meta_inclination": 74.0655,
        "meta_ra_of_asc_node": 334.1941,
        "meta_arg_of_pericenter": 334.1122,
        "meta_mean_anomaly": 199.4071,
        "meta_ephemeris_type": 0,
        "meta_classification_type": "U",
        "meta_norad_cat_id": 34035,
        "meta_element_set_no": 999,
        "meta_rev_at_epoch": 88081,
        "meta_bstar": 0.0010888868,
        "meta_mean_motion_dot": 4.435e-05,
        "meta_mean_motion_ddot": 0,
        "tle_line1": "1 34035U 93036HW  25354.68607497  .00004435  00000+0  10889-2 0  9995",
        "tle_line2": "2 34035  74.0655 334.1941 0045176 334.1122 199.4071 14.52033624880814"
      },
      "geometry": {
        "type": "Point",
        "coordinates": [
          154.54791908058792,
          -4.86765772898895
        ]
      }
    }
  ]
}